[
    {
        "Altitude(m)": 559781.6655228392,
        "Argument of Periapsis(deg)": 0.026491964442854003,
        "Eccentricity": 0.0,
        "Inclination(deg)": 53.0,
        "Latitude(deg)": 52.62558591265714,
        "Longitude(deg)": -112.03438626335203,
        "Mean Anomaly(deg)": 96.73007147031034,
        "RAAN(deg)": 249.9605734741121,
        "Satellite Name": "Starlink Shell 1 1103",
        "Satellite Number": 1103,
        "Semi-Major Axis(m)": 6931778.249405717,
        "Time(s)": 760
    },
    {
        "Altitude(m)": 559758.7107604475,
        "Argument of Periapsis(deg)": 0.02684054292236524,
        "Eccentricity": 0.0,
        "Inclination(deg)": 53.0,
        "Latitude(deg)": 52.52440026221959,
        "Longitude(deg)": -111.06053711092306,
        "Mean Anomaly(deg)": 97.35690267386704,
        "RAAN(deg)": 249.9600547040346,
        "Satellite Name": "Starlink Shell 1 1103",
        "Satellite Number": 1103,
        "Semi-Major Axis(m)": 6931778.249405717,
        "Time(s)": 770
    },
    {
        "Altitude(m)": 559733.772381321,
        "Argument of Periapsis(deg)": 0.027189121401876473,
        "Eccentricity": 0.0,
        "Inclination(deg)": 53.0,
        "Latitude(deg)": 52.414551661274395,
        "Longitude(deg)": -110.09153751729767,
        "Mean Anomaly(deg)": 97.98373387742379,
        "RAAN(deg)": 249.95953593395714,
        "Satellite Name": "Starlink Shell 1 1103",
        "Satellite Number": 1103,
        "Semi-Major Axis(m)": 6931778.249405717,
        "Time(s)": 780
    },
    {
        "Altitude(m)": 559706.8654209437,
        "Argument of Periapsis(deg)": 0.02753769988138771,
        "Eccentricity": 0.0,
        "Inclination(deg)": 53.0,
        "Latitude(deg)": 52.29611661730185,
        "Longitude(deg)": -109.1277367456365,
        "Mean Anomaly(deg)": 98.61056508098054,
        "RAAN(deg)": 249.95901716387968,
        "Satellite Name": "Starlink Shell 1 1103",
        "Satellite Number": 1103,
        "Semi-Major Axis(m)": 6931778.249405717,
        "Time(s)": 790
    },
    {
        "Altitude(m)": 559678.0061066633,
        "Argument of Periapsis(deg)": 0.02788627836089895,
        "Eccentricity": 0.0,
        "Inclination(deg)": 53.0,
        "Latitude(deg)": 52.16917663019549,
        "Longitude(deg)": -108.16947064753413,
        "Mean Anomaly(deg)": 99.23739628453717,
        "RAAN(deg)": 249.9584983938022,
        "Satellite Name": "Starlink Shell 1 1103",
        "Satellite Number": 1103,
        "Semi-Major Axis(m)": 6931778.249405717,
        "Time(s)": 800
    },
    {
        "Altitude(m)": 559647.2118497933,
        "Argument of Periapsis(deg)": 0.02823485684041019,
        "Eccentricity": 0.0,
        "Inclination(deg)": 53.0,
        "Latitude(deg)": 52.033817932216486,
        "Longitude(deg)": -107.21706054290229,
        "Mean Anomaly(deg)": 99.86422748809392,
        "RAAN(deg)": 249.95797962372473,
        "Satellite Name": "Starlink Shell 1 1103",
        "Satellite Number": 1103,
        "Semi-Major Axis(m)": 6931778.249405717,
        "Time(s)": 810
    },
    {
        "Altitude(m)": 559614.5012370975,
        "Argument of Periapsis(deg)": 0.028583435319921423,
        "Eccentricity": 0.0,
        "Inclination(deg)": 53.0,
        "Latitude(deg)": 51.890131218959176,
        "Longitude(deg)": -106.27081218618594,
        "Mean Anomaly(deg)": 100.49105869165062,
        "RAAN(deg)": 249.95746085364723,
        "Satellite Name": "Starlink Shell 1 1103",
        "Satellite Number": 1103,
        "Semi-Major Axis(m)": 6931778.249405717,
        "Time(s)": 820
    },
    {
        "Altitude(m)": 559579.8940216991,
        "Argument of Periapsis(deg)": 0.028932013799432665,
        "Eccentricity": 0.0,
        "Inclination(deg)": 53.0,
        "Latitude(deg)": 51.738211373296984,
        "Longitude(deg)": -105.33101633330195,
        "Mean Anomaly(deg)": 101.11788989520737,
        "RAAN(deg)": 249.95694208356974,
        "Satellite Name": "Starlink Shell 1 1103",
        "Satellite Number": 1103,
        "Semi-Major Axis(m)": 6931778.249405717,
        "Time(s)": 830
    },
    {
        "Altitude(m)": 559543.4111134582,
        "Argument of Periapsis(deg)": 0.029280592278943897,
        "Eccentricity": 0.0,
        "Inclination(deg)": 53.0,
        "Latitude(deg)": 51.578157184043164,
        "Longitude(deg)": -104.39794788241346,
        "Mean Anomaly(deg)": 101.74472109876406,
        "RAAN(deg)": 249.9564233134923,
        "Satellite Name": "Starlink Shell 1 1103",
        "Satellite Number": 1103,
        "Semi-Major Axis(m)": 6931778.249405717,
        "Time(s)": 840
    },
    {
        "Altitude(m)": 559505.0745687142,
        "Argument of Periapsis(deg)": 0.029629170758455132,
        "Eccentricity": 0.0,
        "Inclination(deg)": 53.0,
        "Latitude(deg)": 51.410071061088324,
        "Longitude(deg)": -103.47186510005037,
        "Mean Anomaly(deg)": 102.37155230232075,
        "RAAN(deg)": 249.95590454341482,
        "Satellite Name": "Starlink Shell 1 1103",
        "Satellite Number": 1103,
        "Semi-Major Axis(m)": 6931778.249405717,
        "Time(s)": 850
    },
    {
        "Altitude(m)": 559464.9075795138,
        "Argument of Periapsis(deg)": 0.02997774923796637,
        "Eccentricity": 0.0,
        "Inclination(deg)": 53.0,
        "Latitude(deg)": 51.23405874871054,
        "Longitude(deg)": -102.553010611377,
        "Mean Anomaly(deg)": 102.9983835058775,
        "RAAN(deg)": 249.95538577333733,
        "Satellite Name": "Starlink Shell 1 1103",
        "Satellite Number": 1103,
        "Semi-Major Axis(m)": 6931778.249405717,
        "Time(s)": 860
    },
    {
        "Altitude(m)": 559422.934462274,
        "Argument of Periapsis(deg)": 0.030326327717477602,
        "Eccentricity": 0.0,
        "Inclination(deg)": 53.0,
        "Latitude(deg)": 51.050229038676136,
        "Longitude(deg)": -101.6416099493606,
        "Mean Anomaly(deg)": 103.6252147094342,
        "RAAN(deg)": 249.95486700325992,
        "Satellite Name": "Starlink Shell 1 1103",
        "Satellite Number": 1103,
        "Semi-Major Axis(m)": 6931778.249405717,
        "Time(s)": 870
    },
    {
        "Altitude(m)": 559379.1806458434,
        "Argument of Periapsis(deg)": 0.030674906196988847,
        "Eccentricity": 0.0,
        "Inclination(deg)": 53.0,
        "Latitude(deg)": 50.85869348466964,
        "Longitude(deg)": -100.73787270233589,
        "Mean Anomaly(deg)": 104.2520459129909,
        "RAAN(deg)": 249.95434823318243,
        "Satellite Name": "Starlink Shell 1 1103",
        "Satellite Number": 1103,
        "Semi-Major Axis(m)": 6931778.249405717,
        "Time(s)": 880
    },
    {
        "Altitude(m)": 559333.6726590894,
        "Argument of Periapsis(deg)": 0.031023484676500086,
        "Eccentricity": 0.0,
        "Inclination(deg)": 53.0,
        "Latitude(deg)": 50.65956611948921,
        "Longitude(deg)": -99.84199205363826,
        "Mean Anomaly(deg)": 104.87887711654764,
        "RAAN(deg)": 249.9538294631049,
        "Satellite Name": "Starlink Shell 1 1103",
        "Satellite Number": 1103,
        "Semi-Major Axis(m)": 6931778.249405717,
        "Time(s)": 890
    },
    {
        "Altitude(m)": 559286.4381178478,
        "Argument of Periapsis(deg)": 0.03137206315601132,
        "Eccentricity": 0.0,
        "Inclination(deg)": 53.0,
        "Latitude(deg)": 50.452963176342514,
        "Longitude(deg)": -98.95414438994901,
        "Mean Anomaly(deg)": 105.50570832010433,
        "RAAN(deg)": 249.95331069302748,
        "Satellite Name": "Starlink Shell 1 1103",
        "Satellite Number": 1103,
        "Semi-Major Axis(m)": 6931778.249405717,
        "Time(s)": 900
    },
    {
        "Altitude(m)": 559237.5057114277,
        "Argument of Periapsis(deg)": 0.03172064163552255,
        "Eccentricity": 0.0,
        "Inclination(deg)": 53.0,
        "Latitude(deg)": 50.23900281546539,
        "Longitude(deg)": -98.07449048656044,
        "Mean Anomaly(deg)": 106.13253952366108,
        "RAAN(deg)": 249.95279192294998,
        "Satellite Name": "Starlink Shell 1 1103",
        "Satellite Number": 1103,
        "Semi-Major Axis(m)": 6931778.249405717,
        "Time(s)": 910
    },
    {
        "Altitude(m)": 559186.9051885002,
        "Argument of Periapsis(deg)": 0.0320692201150338,
        "Eccentricity": 0.0,
        "Inclination(deg)": 53.0,
        "Latitude(deg)": 50.01780485716799,
        "Longitude(deg)": -97.20317523890363,
        "Mean Anomaly(deg)": 106.75937072721779,
        "RAAN(deg)": 249.95227315287252,
        "Satellite Name": "Starlink Shell 1 1103",
        "Satellite Number": 1103,
        "Semi-Major Axis(m)": 6931778.249405717,
        "Time(s)": 920
    },
    {
        "Altitude(m)": 559134.6673425062,
        "Argument of Periapsis(deg)": 0.032417798594545036,
        "Eccentricity": 0.0,
        "Inclination(deg)": 53.0,
        "Latitude(deg)": 49.78949052229579,
        "Longitude(deg)": -96.34032744811674,
        "Mean Anomaly(deg)": 107.38620193077448,
        "RAAN(deg)": 249.95175438279506,
        "Satellite Name": "Starlink Shell 1 1103",
        "Satellite Number": 1103,
        "Semi-Major Axis(m)": 6931778.249405717,
        "Time(s)": 930
    },
    {
        "Altitude(m)": 559080.823996523,
        "Argument of Periapsis(deg)": 0.03276637707405627,
        "Eccentricity": 0.0,
        "Inclination(deg)": 53.0,
        "Latitude(deg)": 49.55418218097413,
        "Longitude(deg)": -95.48606116832647,
        "Mean Anomaly(deg)": 108.01303313433122,
        "RAAN(deg)": 249.95123561271757,
        "Satellite Name": "Starlink Shell 1 1103",
        "Satellite Number": 1103,
        "Semi-Major Axis(m)": 6931778.249405717,
        "Time(s)": 940
    }
]